1 31573U 07020C 26162.00869451 -.00000099 00000+0 -62292-4 0 9992 
2 31573 52.0039 269.6143 0002467 135.3079 42.7747 12.23470969878049 
1 31574U 07020D 26162.16960117 -.00000083 00000+0 80042-5 0 9997 
2 31574 51.9917 116.2653 0001401 315.1418 62.5345 11.91658488874260 
1 32265U 07048C 26162.05482008 -.00000138 00000+0 -37024-3 0 9993 
2 32265 51.9596 75.5159 0005382 30.9593 347.4068 12.30388287859471 
1 37188U 10054A 26162.18803622 -.00000094 00000+0 55533-4 0 9992 
2 37188 52.0024 126.9316 0000568 8.8433 9.5571 12.62266060721799 
1 37189U 10054B 26162.21465160 -.00000102 00000+0 86212-5 0 9997 
2 37189 52.0000 126.1164 0000414 46.1662 333.4189 12.62268436722408 
1 37190U 10054C 26162.16203014 -.00000115 00000+0 -64719-4 0 9993 
2 37190 52.0018 126.4791 0000597 34.3564 346.2099 12.62261787722112 
1 37191U 10054D 26161.81431372 -.00000061 00000+0 31850-3 0 9993 
2 37191 51.9928 195.4721 0002833 161.0525 14.3221 11.67547626720391 
1 37192U 10054E 26162.33336406 -.00000083 00000+0 11477-3 0 9991 
2 37192 51.9918 168.0165 0000027 54.6483 324.6380 12.62267378721205 
1 37193U 10054F 26162.09596294 -.00000114 00000+0 -58771-4 0 9993 
2 37193 52.0062 82.8337 0000806 36.1079 342.4809 12.62262107723169 
1 37739U 11033A 26161.95052441 -.00000098 00000+0 33955-4 0 9999 
2 37739 51.9872 31.5138 0000865 58.1116 320.6885 12.62262973692161 
1 37740U 11033B 26162.11745322 -.00000101 00000+0 12899-4 0 9996 
2 37740 52.0226 297.4202 0000805 117.2422 58.7414 12.62268611687722 
1 37741U 11033C 26162.05126541 -.00000099 00000+0 27689-4 0 9995 
2 37741 52.0001 260.5961 0000441 141.3432 34.7798 12.62263784688504 
1 37742U 11033D 26161.87992448 -.00000086 00000+0 10125-3 0 9994 
2 37742 52.0107 212.4042 0000145 203.2674 333.9720 12.62263974688998 
1 37743U 11033E 26161.90482256 -.00000082 00000+0 12275-3 0 9994 
2 37743 51.9939 214.7719 0000204 128.3151 41.7187 12.62264884689149 
1 37744U 11033F 26162.30700233 -.00000071 00000+0 18299-3 0 9998 
2 37744 51.9906 167.7065 0000347 96.5648 282.7473 12.62267169690045 
1 38040U 11080A 26161.92403809 -.00000106 00000+0 -12801-4 0 9990 
2 38040 52.0025 36.3494 0001052 76.4518 301.7080 12.62267487667978 
1 38041U 11080B 26161.97472293 -.00000099 00000+0 25124-4 0 9991 
2 38041 52.0077 37.9111 0000320 68.0935 310.5074 12.62269307668106 
1 38042U 11080C 26162.26230424 -.00000090 00000+0 75081-4 0 9991 
2 38042 52.0098 352.5360 0000533 89.1153 87.0920 12.62269962668848 
1 38043U 11080D 26162.04306272 -.00000108 00000+0 -23277-4 0 9994 
2 38043 52.0088 83.5994 0000589 54.7772 323.6319 12.62266915667270 
1 38044U 11080E 26162.28923472 -.00000094 00000+0 54175-4 0 9992 
2 38044 52.0145 346.4080 0000805 83.4399 94.1218 12.62269015668966 
1 38045U 11080F 26162.23052813 -.00000085 00000+0 10510-3 0 9994 
2 38045 51.9912 346.5262 0001651 57.3065 113.9340 12.62286640668903 
1 39072U 13005A 26161.98642993 -.00000098 00000+0 29941-4 0 9992 
2 39072 52.0050 262.2120 0000409 124.8132 235.2774 12.62247183616126 
1 39073U 13005B 26161.95973536 -.00000097 00000+0 35163-4 0 9992 
2 39073 52.0106 255.6378 0000279 105.4721 254.6177 12.62265768616079 
1 39074U 13005C 26162.27638473 -.00000083 00000+0 11761-3 0 9999 
2 39074 51.9930 168.7959 0000255 344.7640 15.3219 12.62268589617720 
1 39075U 13005D 26161.89392496 -.00000084 00000+0 11187-3 0 9992 
2 39075 52.0056 218.7581 0000136 172.4684 187.6185 12.62265470616596 
1 39076U 13005E 26161.70854019 -.00000181 00000+0 -43073-3 0 9995 
2 39076 51.9888 303.3390 0000562 202.9719 157.1122 12.62258630615196 
1 39077U 13005F 26162.05204694 -.00000107 00000+0 -16992-4 0 9992 
2 39077 52.0095 299.8888 0000345 124.4017 235.6883 12.62263345615092 
1 52888U 22064A 26162.06531551 -.00000108 00000+0 -25819-4 0 9997 
2 52888 51.9999 81.0897 0000638 25.0642 335.0255 12.62268950190367 
