OBJECT_NAME,OBJECT_ID,EPOCH,MEAN_MOTION,ECCENTRICITY,INCLINATION,RA_OF_ASC_NODE,ARG_OF_PERICENTER,MEAN_ANOMALY,EPHEMERIS_TYPE,CLASSIFICATION_TYPE,NORAD_CAT_ID,ELEMENT_SET_NO,REV_AT_EPOCH,BSTAR,MEAN_MOTION_DOT,MEAN_MOTION_DDOT
GLOBALSTAR M069,2007-020C,2026-06-11T00:12:31.205664,12.23470969,.0002467,52.0039,269.6143,135.3079,42.7747,0,U,31573,999,87804,-.62291827E-4,-.99E-6,0
GLOBALSTAR M072,2007-020D,2026-06-11T04:04:13.541088,11.91658488,.00014011,51.9917,116.2653,315.1418,62.5345,0,U,31574,999,87426,.8004218E-5,-.83E-6,0
GLOBALSTAR M066,2007-048C,2026-06-11T01:18:56.454912,12.30388287,.00053823,51.9596,75.5159,30.9593,347.4068,0,U,32265,999,85947,-.37024142E-3,-.138E-5,0
GLOBALSTAR M079,2010-054A,2026-06-11T04:30:46.329408,12.62266060,.00005681,52.0024,126.9316,8.8433,9.5571,0,U,37188,999,72179,.5553325E-4,-.94E-6,0
GLOBALSTAR M074,2010-054B,2026-06-11T05:09:05.898240,12.62268436,.00004145,52.0000,126.1164,46.1662,333.4189,0,U,37189,999,72240,.8621179E-5,-.102E-5,0
GLOBALSTAR M076,2010-054C,2026-06-11T03:53:19.404096,12.62261787,.00005971,52.0018,126.4791,34.3564,346.2099,0,U,37190,999,72211,-.64718864E-4,-.115E-5,0
GLOBALSTAR M077,2010-054D,2026-06-10T19:32:36.705408,11.67547626,.00028337,51.9928,195.4721,161.0525,14.3221,0,U,37191,999,72039,.31850465E-3,-.61E-6,0
GLOBALSTAR M075,2010-054E,2026-06-11T08:00:02.654784,12.62267378,.00000276,51.9918,168.0165,54.6483,324.6380,0,U,37192,999,72120,.11476697E-3,-.83E-6,0
GLOBALSTAR M073,2010-054F,2026-06-11T02:18:11.198016,12.62262107,.00008062,52.0062,82.8337,36.1079,342.4809,0,U,37193,999,72316,-.58771028E-4,-.114E-5,0
GLOBALSTAR M083,2011-033A,2026-06-10T22:48:45.309024,12.62262973,.00008658,51.9872,31.5138,58.1116,320.6885,0,U,37739,999,69216,.33955061E-4,-.98E-6,0
GLOBALSTAR M088,2011-033B,2026-06-11T02:49:07.958208,12.62268611,.00008054,52.0226,297.4202,117.2422,58.7414,0,U,37740,999,68772,.12898689E-4,-.101E-5,0
GLOBALSTAR M091,2011-033C,2026-06-11T01:13:49.331424,12.62263784,.00004414,52.0001,260.5961,141.3432,34.7798,0,U,37741,999,68850,.27689265E-4,-.99E-6,0
GLOBALSTAR M085,2011-033D,2026-06-10T21:07:05.475072,12.62263974,.00001455,52.0107,212.4042,203.2674,333.9720,0,U,37742,999,68899,.10125329E-3,-.86E-6,0
GLOBALSTAR M081,2011-033E,2026-06-10T21:42:56.669184,12.62264884,.00002042,51.9939,214.7719,128.3151,41.7187,0,U,37743,999,68914,.12275088E-3,-.82E-6,0
GLOBALSTAR M089,2011-033F,2026-06-11T07:22:05.001312,12.62267169,.00003474,51.9906,167.7065,96.5648,282.7473,0,U,37744,999,69004,.18298792E-3,-.71E-6,0
GLOBALSTAR M084,2011-080A,2026-06-10T22:10:36.890976,12.62267487,.00010524,52.0025,36.3494,76.4518,301.7080,0,U,38040,999,66797,-.12801262E-4,-.106E-5,0
GLOBALSTAR M080,2011-080B,2026-06-10T23:23:36.061152,12.62269307,.00003203,52.0077,37.9111,68.0935,310.5074,0,U,38041,999,66810,.25123793E-4,-.99E-6,0
GLOBALSTAR M082,2011-080C,2026-06-11T06:17:43.086336,12.62269962,.00005338,52.0098,352.5360,89.1153,87.0920,0,U,38042,999,66884,.75081362E-4,-.9E-6,0
GLOBALSTAR M092,2011-080D,2026-06-11T01:02:00.619008,12.62266915,.00005897,52.0088,83.5994,54.7772,323.6319,0,U,38043,999,66727,-.23277015E-4,-.108E-5,0
GLOBALSTAR M090,2011-080E,2026-06-11T06:56:29.879808,12.62269015,.00008055,52.0145,346.4080,83.4399,94.1218,0,U,38044,999,66896,.54174904E-4,-.94E-6,0
GLOBALSTAR M086,2011-080F,2026-06-11T05:31:57.630432,12.62286640,.00016514,51.9912,346.5262,57.3065,113.9340,0,U,38045,999,66890,.10510239E-3,-.85E-6,0
GLOBALSTAR M097,2013-005A,2026-06-10T23:40:27.545952,12.62247183,.00004098,52.0050,262.2120,124.8132,235.2774,0,U,39072,999,61612,.29941454E-4,-.98E-6,0
GLOBALSTAR M093,2013-005B,2026-06-10T23:02:01.135104,12.62265768,.00002794,52.0106,255.6378,105.4721,254.6177,0,U,39073,999,61607,.35163374E-4,-.97E-6,0
GLOBALSTAR M094,2013-005C,2026-06-11T06:37:59.640672,12.62268589,.00002551,51.9930,168.7959,344.7640,15.3219,0,U,39074,999,61772,.11760738E-3,-.83E-6,0
GLOBALSTAR M096,2013-005D,2026-06-10T21:27:15.116544,12.62265470,.00001361,52.0056,218.7581,172.4684,187.6185,0,U,39075,999,61659,.1118742E-3,-.84E-6,0
GLOBALSTAR M078,2013-005E,2026-06-10T17:00:17.872416,12.62258630,.0000562,51.9888,303.3390,202.9719,157.1122,0,U,39076,999,61519,-.43073018E-3,-.181E-5,0
GLOBALSTAR M095,2013-005F,2026-06-11T01:14:56.855616,12.62263345,.00003457,52.0095,299.8888,124.4017,235.6883,0,U,39077,999,61509,-.16992212E-4,-.107E-5,0
GLOBALSTAR M087,2022-064A,2026-06-11T01:34:03.260064,12.62268950,.00006384,51.9999,81.0897,25.0642,335.0255,0,U,52888,999,19036,-.25818527E-4,-.108E-5,0
